CCSDS_OMM_VERS = 2.0
CREATION_DATE  = 
ORIGINATOR     = 

OBJECT_NAME    = SL-14 R/B
OBJECT_ID      = 1991-042B
CENTER_NAME    = EARTH
REF_FRAME      = TEME
TIME_SYSTEM    = UTC
MEAN_ELEMENT_THEORY = SGP/SGP4

EPOCH          = 2026-02-11T15:00:03.556224
MEAN_MOTION    = 14.81803855
ECCENTRICITY   = .00163453
INCLINATION    = 82.4898
RA_OF_ASC_NODE = 244.6293
ARG_OF_PERICENTER = 331.4813
MEAN_ANOMALY   = 28.5505

EPHEMERIS_TYPE = 0
CLASSIFICATION_TYPE = U
NORAD_CAT_ID   = 21423
ELEMENT_SET_NO = 999
REV_AT_EPOCH   = 84921
BSTAR          = .49370056E-4
MEAN_MOTION_DOT = .414E-5
MEAN_MOTION_DDOT = 0

CCSDS_OMM_VERS = 2.0
CREATION_DATE  = 
ORIGINATOR     = 

OBJECT_NAME    = ERS-1
OBJECT_ID      = 1991-050A
CENTER_NAME    = EARTH
REF_FRAME      = TEME
TIME_SYSTEM    = UTC
MEAN_ELEMENT_THEORY = SGP/SGP4

EPOCH          = 2026-02-11T21:48:21.776832
MEAN_MOTION    = 14.39428336
ECCENTRICITY   = .00309099
INCLINATION    = 98.7894
RA_OF_ASC_NODE = 60.4948
ARG_OF_PERICENTER = 279.1187
MEAN_ANOMALY   = 80.6503

EPHEMERIS_TYPE = 0
CLASSIFICATION_TYPE = U
NORAD_CAT_ID   = 21574
ELEMENT_SET_NO = 999
REV_AT_EPOCH   = 81202
BSTAR          = .14315376E-3
MEAN_MOTION_DOT = .401E-5
MEAN_MOTION_DDOT = 0

CCSDS_OMM_VERS = 2.0
CREATION_DATE  = 
ORIGINATOR     = 

OBJECT_NAME    = ARIANE 40 R/B
OBJECT_ID      = 1991-050F
CENTER_NAME    = EARTH
REF_FRAME      = TEME
TIME_SYSTEM    = UTC
MEAN_ELEMENT_THEORY = SGP/SGP4

EPOCH          = 2026-02-11T17:50:34.281312
MEAN_MOTION    = 14.42874221
ECCENTRICITY   = .00039289
INCLINATION    = 98.2069
RA_OF_ASC_NODE = 95.9466
ARG_OF_PERICENTER = 138.1679
MEAN_ANOMALY   = 221.9812

EPHEMERIS_TYPE = 0
CLASSIFICATION_TYPE = U
NORAD_CAT_ID   = 21610
ELEMENT_SET_NO = 999
REV_AT_EPOCH   = 81525
BSTAR          = .10859069E-3
MEAN_MOTION_DOT = .321E-5
MEAN_MOTION_DDOT = 0

CCSDS_OMM_VERS = 2.0
CREATION_DATE  = 
ORIGINATOR     = 

OBJECT_NAME    = INTERCOSMOS 25
OBJECT_ID      = 1991-086A
CENTER_NAME    = EARTH
REF_FRAME      = TEME
TIME_SYSTEM    = UTC
MEAN_ELEMENT_THEORY = SGP/SGP4

EPOCH          = 2026-02-11T17:36:05.788512
MEAN_MOTION    = 12.11927486
ECCENTRICITY   = .14868286
INCLINATION    = 82.6085
RA_OF_ASC_NODE = 325.6933
ARG_OF_PERICENTER = 172.8499
MEAN_ANOMALY   = 189.6666

EPHEMERIS_TYPE = 0
CLASSIFICATION_TYPE = U
NORAD_CAT_ID   = 21819
ELEMENT_SET_NO = 999
REV_AT_EPOCH   = 49354
BSTAR          = .3034846E-3
MEAN_MOTION_DOT = .1564E-4
MEAN_MOTION_DDOT = 0

CCSDS_OMM_VERS = 2.0
CREATION_DATE  = 
ORIGINATOR     = 

OBJECT_NAME    = SL-8 R/B
OBJECT_ID      = 1992-008B
CENTER_NAME    = EARTH
REF_FRAME      = TEME
TIME_SYSTEM    = UTC
MEAN_ELEMENT_THEORY = SGP/SGP4

EPOCH          = 2026-02-11T18:18:00.913248
MEAN_MOTION    = 13.75969696
ECCENTRICITY   = .00339604
INCLINATION    = 82.9259
RA_OF_ASC_NODE = 287.0669
ARG_OF_PERICENTER = 205.2523
MEAN_ANOMALY   = 219.2261

EPHEMERIS_TYPE = 0
CLASSIFICATION_TYPE = U
NORAD_CAT_ID   = 21876
ELEMENT_SET_NO = 999
REV_AT_EPOCH   = 70585
BSTAR          = .14309739E-4
MEAN_MOTION_DOT = .29E-6
MEAN_MOTION_DDOT = 0

CCSDS_OMM_VERS = 2.0
CREATION_DATE  = 
ORIGINATOR     = 

OBJECT_NAME    = SL-8 R/B
OBJECT_ID      = 1992-020B
CENTER_NAME    = EARTH
REF_FRAME      = TEME
TIME_SYSTEM    = UTC
MEAN_ELEMENT_THEORY = SGP/SGP4

EPOCH          = 2026-02-11T21:10:46.146720
MEAN_MOTION    = 13.75545870
ECCENTRICITY   = .00290951
INCLINATION    = 82.9334
RA_OF_ASC_NODE = 172.9165
ARG_OF_PERICENTER = 12.5203
MEAN_ANOMALY   = 111.5350

EPHEMERIS_TYPE = 0
CLASSIFICATION_TYPE = U
NORAD_CAT_ID   = 21938
ELEMENT_SET_NO = 999
REV_AT_EPOCH   = 69758
BSTAR          = .11084504E-3
MEAN_MOTION_DOT = .122E-5
MEAN_MOTION_DDOT = 0

CCSDS_OMM_VERS = 2.0
CREATION_DATE  = 
ORIGINATOR     = 

OBJECT_NAME    = USA 81
OBJECT_ID      = 1992-023A
CENTER_NAME    = EARTH
REF_FRAME      = TEME
TIME_SYSTEM    = UTC
MEAN_ELEMENT_THEORY = SGP/SGP4

EPOCH          = 2026-02-11T17:47:45.771936
MEAN_MOTION    = 14.32358479
ECCENTRICITY   = .00026857
INCLINATION    = 85.0120
RA_OF_ASC_NODE = 146.4035
ARG_OF_PERICENTER = 101.0186
MEAN_ANOMALY   = 259.1309

EPHEMERIS_TYPE = 0
CLASSIFICATION_TYPE = U
NORAD_CAT_ID   = 21949
ELEMENT_SET_NO = 999
REV_AT_EPOCH   = 9107
BSTAR          = .70156759E-4
MEAN_MOTION_DOT = .209E-5
MEAN_MOTION_DDOT = 0

CCSDS_OMM_VERS = 2.0
CREATION_DATE  = 
ORIGINATOR     = 

OBJECT_NAME    = COSMOS 2219
OBJECT_ID      = 1992-076A
CENTER_NAME    = EARTH
REF_FRAME      = TEME
TIME_SYSTEM    = UTC
MEAN_ELEMENT_THEORY = SGP/SGP4

EPOCH          = 2026-02-11T13:26:23.159328
MEAN_MOTION    = 14.14076605
ECCENTRICITY   = .00201974
INCLINATION    = 71.0580
RA_OF_ASC_NODE = 72.6945
ARG_OF_PERICENTER = 242.7133
MEAN_ANOMALY   = 117.1933

EPHEMERIS_TYPE = 0
CLASSIFICATION_TYPE = U
NORAD_CAT_ID   = 22219
ELEMENT_SET_NO = 999
REV_AT_EPOCH   = 71468
BSTAR          = .26771881E-4
MEAN_MOTION_DOT = .4E-7
MEAN_MOTION_DDOT = 0

CCSDS_OMM_VERS = 2.0
CREATION_DATE  = 
ORIGINATOR     = 

OBJECT_NAME    = SL-16 R/B
OBJECT_ID      = 1992-076B
CENTER_NAME    = EARTH
REF_FRAME      = TEME
TIME_SYSTEM    = UTC
MEAN_ELEMENT_THEORY = SGP/SGP4

EPOCH          = 2026-02-11T22:28:01.568928
MEAN_MOTION    = 14.16856018
ECCENTRICITY   = .00112955
INCLINATION    = 70.9978
RA_OF_ASC_NODE = 242.6233
ARG_OF_PERICENTER = 142.5499
MEAN_ANOMALY   = 321.9144

EPHEMERIS_TYPE = 0
CLASSIFICATION_TYPE = U
NORAD_CAT_ID   = 22220
ELEMENT_SET_NO = 999
REV_AT_EPOCH   = 71818
BSTAR          = -.22564066E-4
MEAN_MOTION_DOT = -.93E-6
MEAN_MOTION_DDOT = 0

CCSDS_OMM_VERS = 2.0
CREATION_DATE  = 
ORIGINATOR     = 

OBJECT_NAME    = COSMOS 2221
OBJECT_ID      = 1992-080A
CENTER_NAME    = EARTH
REF_FRAME      = TEME
TIME_SYSTEM    = UTC
MEAN_ELEMENT_THEORY = SGP/SGP4

EPOCH          = 2026-02-11T18:06:50.263488
MEAN_MOTION    = 14.96098492
ECCENTRICITY   = .00128085
INCLINATION    = 82.5054
RA_OF_ASC_NODE = 303.9200
ARG_OF_PERICENTER = 282.2168
MEAN_ANOMALY   = 77.7619

EPHEMERIS_TYPE = 0
CLASSIFICATION_TYPE = U
NORAD_CAT_ID   = 22236
ELEMENT_SET_NO = 999
REV_AT_EPOCH   = 77691
BSTAR          = .16658028E-3
MEAN_MOTION_DOT = .19E-4
MEAN_MOTION_DDOT = 0

CCSDS_OMM_VERS = 2.0
CREATION_DATE  = 
ORIGINATOR     = 

OBJECT_NAME    = SL-16 R/B
OBJECT_ID      = 1992-093B
CENTER_NAME    = EARTH
REF_FRAME      = TEME
TIME_SYSTEM    = UTC
MEAN_ELEMENT_THEORY = SGP/SGP4

EPOCH          = 2026-02-11T10:48:16.381440
MEAN_MOTION    = 14.15441298
ECCENTRICITY   = .00052183
INCLINATION    = 71.0200
RA_OF_ASC_NODE = 59.3506
ARG_OF_PERICENTER = 321.5655
MEAN_ANOMALY   = 38.5095

EPHEMERIS_TYPE = 0
CLASSIFICATION_TYPE = U
NORAD_CAT_ID   = 22285
ELEMENT_SET_NO = 999
REV_AT_EPOCH   = 70944
BSTAR          = .66791245E-4
MEAN_MOTION_DOT = .83E-6
MEAN_MOTION_DDOT = 0

CCSDS_OMM_VERS = 2.0
CREATION_DATE  = 
ORIGINATOR     = 

OBJECT_NAME    = COSMOS 2228
OBJECT_ID      = 1992-094A
CENTER_NAME    = EARTH
REF_FRAME      = TEME
TIME_SYSTEM    = UTC
MEAN_ELEMENT_THEORY = SGP/SGP4

EPOCH          = 2026-02-11T22:07:19.364160
MEAN_MOTION    = 14.97069516
ECCENTRICITY   = .0018855
INCLINATION    = 82.5155
RA_OF_ASC_NODE = 261.9861
ARG_OF_PERICENTER = 32.6658
MEAN_ANOMALY   = 327.5726

EPHEMERIS_TYPE = 0
CLASSIFICATION_TYPE = U
NORAD_CAT_ID   = 22286
ELEMENT_SET_NO = 999
REV_AT_EPOCH   = 77220
BSTAR          = .15847495E-3
MEAN_MOTION_DOT = .1859E-4
MEAN_MOTION_DDOT = 0

