SL-14 R/B               
1 21423U 91042B   26042.62504116  .00000414  00000+0  49370-4 0  9992
2 21423  82.4898 244.6293 0016345 331.4813  28.5505 14.81803855849217
ERS-1                   
1 21574U 91050A   26042.90858538  .00000401  00000+0  14315-3 0  9995
2 21574  98.7894  60.4948 0030909 279.1187  80.6503 14.39428336812021
ARIANE 40 R/B           
1 21610U 91050F   26042.74345233  .00000321  00000+0  10859-3 0  9991
2 21610  98.2069  95.9466 0003928 138.1679 221.9812 14.42874221815253
INTERCOSMOS 25          
1 21819U 91086A   26042.73340033  .00001564  00000+0  30348-3 0  9998
2 21819  82.6085 325.6933 1486828 172.8499 189.6666 12.11927486493548
SL-8 R/B                
1 21876U 92008B   26042.76251057  .00000029  00000+0  14310-4 0  9993
2 21876  82.9259 287.0669 0033960 205.2523 219.2261 13.75969696705858
SL-8 R/B                
1 21938U 92020B   26042.88247855  .00000122  00000+0  11085-3 0  9999
2 21938  82.9334 172.9165 0029095  12.5203 111.5350 13.75545870697589
USA 81                  
1 21949U 92023A   26042.74150199  .00000209  00000+0  70157-4 0  9995
2 21949  85.0120 146.4035 0002685 101.0186 259.1309 14.32358479 91076
COSMOS 2219             
1 22219U 92076A   26042.55999027  .00000004  00000+0  26772-4 0  9991
2 22219  71.0580  72.6945 0020197 242.7133 117.1933 14.14076605714688
SL-16 R/B               
1 22220U 92076B   26042.93612927 -.00000093  00000+0 -22564-4 0  9991
2 22220  70.9978 242.6233 0011295 142.5499 321.9144 14.16856018718183
COSMOS 2221             
1 22236U 92080A   26042.75474842  .00001900  00000+0  16658-3 0  9997
2 22236  82.5054 303.9200 0012808 282.2168  77.7619 14.96098492776915
SL-16 R/B               
1 22285U 92093B   26042.45018960  .00000083  00000+0  66791-4 0  9992
2 22285  71.0200  59.3506 0005218 321.5655  38.5095 14.15441298709445
COSMOS 2228             
1 22286U 92094A   26042.92175190  .00001859  00000+0  15847-3 0  9992
2 22286  82.5155 261.9861 0018855  32.6658 327.5726 14.97069516772206
